NORAD_CAT_ID,OBJECT_NAME,OBJECT_TYPE,EPOCH,MEAN_MOTION,ECCENTRICITY,INCLINATION,RA_OF_ASC_NODE,ARG_OF_PERICENTER,MEAN_ANOMALY,BSTAR,MEAN_MOTION_DOT,MEAN_MOTION_DDOT,TLE_LINE0,TLE_LINE1,TLE_LINE2,SEMIMAJOR_AXIS,PERIOD,APOGEE,PERIGEE,DECAYED
50851.0,STARLINK-3314,PAYLOAD,2022-05-05 06:00:00,15.08867927,0.0002108,53.2188,3.8848,36.6464,61.599,-0.003156,-0.00050206,0.0,0 STARLINK-3314,1 50851U 22001BA  22125.25001157 -.00050206  00000-0 -31560-2 0  9999,2 50851  53.2188   3.8848 0002108  36.6464  61.5990 15.08867927 19529,6917.795,95.436,541.118,538.202,0.0
50851.0,STARLINK-3314,PAYLOAD,2022-05-05 14:00:01,15.08816631,0.0001874,53.2189,2.3871,40.6029,69.2521,0.0028002,0.00044531,0.0,0 STARLINK-3314,1 50851U 22001BA  22125.58334491  .00044531  00000-0  28002-2 0  9994,2 50851  53.2189   2.3871 0001874  40.6029  69.2521 15.08816631  3570,6917.9519999999975,95.439,541.113,538.52,0.0
50851.0,STARLINK-3314,PAYLOAD,2022-05-05 22:00:00,15.08845237,0.0002026,53.2187,0.8925,37.2356,84.2078,-0.0027164,-0.00043268,0.0,0 STARLINK-3314,1 50851U 22001BA  22125.91667824 -.00043268  00000-0 -27164-2 0  9996,2 50851  53.2187   0.8925 0002026  37.2356  84.2078 15.08845237 19627,6917.864000000001,95.437,541.131,538.328,0.0
50851.0,STARLINK-3314,PAYLOAD,2022-05-06 14:00:01,15.08817217,0.0001853,53.2185,357.8982,40.5218,104.0833,0.0025425,0.00040383,0.0,0 STARLINK-3314,1 50851U 22001BA  22126.58334491  .00040383  00000-0  25425-2 0  9992,2 50851  53.2185 357.8982 0001853  40.5218 104.0833 15.08817217 19722,6917.95,95.439,541.097,538.533,0.0
50851.0,STARLINK-3314,PAYLOAD,2022-05-07 06:00:02,15.08873626,0.0002108,53.2182,354.9067,38.3853,129.4614,-0.0044027,-0.00069745,0.0,0 STARLINK-3314,1 50851U 22001BA  22127.25002315 -.00069745  00000-0 -44027-2 0  9998,2 50851  53.2182 354.9067 0002108  38.3853 129.4614 15.08873626 19831,6917.778,95.435,541.101,538.184,0.0
50851.0,STARLINK-3314,PAYLOAD,2022-05-07 14:00:01,15.0881912,0.0002034,53.2184,353.4091,45.0937,134.30100000000002,0.0024528,0.00038942,0.0,0 STARLINK-3314,1 50851U 22001BA  22127.58334491  .00038942  00000-0  24528-2 0  9994,2 50851  53.2184 353.4091 0002034  45.0937 134.3010 15.08819120  3602,6917.944,95.439,541.216,538.4019999999998,0.0
50851.0,STARLINK-3314,PAYLOAD,2022-05-07 22:00:00,15.08835522,0.0002239,53.2185,351.9147,41.5153,149.4623,0.0002206,3.224e-05,0.0,0 STARLINK-3314,1 50851U 22001BA  22127.91667824  .00003224  00000-0  22060-3 0  9995,2 50851  53.2185 351.9147 0002239  41.5153 149.4623 15.08835522 19930,6917.894,95.438,541.308,538.21,0.0
50851.0,STARLINK-3314,PAYLOAD,2022-05-08 14:00:01,15.0881519,0.0002049,53.2188,348.9202,44.1369,170.0221,0.0020405,0.00032314,0.0,0 STARLINK-3314,1 50851U 22001BA  22128.58334491  .00032314  00000-0  20405-2 0  9992,2 50851  53.2188 348.9202 0002049  44.1369 170.0221 15.08815190  3596,6917.956,95.439,541.239,538.404,0.0
50851.0,STARLINK-3314,PAYLOAD,2022-05-08 22:00:00,15.0882995,0.0002271,53.2189,347.4257,40.4127,185.3315,0.00064854,0.00010046,0.0,0 STARLINK-3314,1 50851U 22001BA  22128.91667824  .00010046  00000-0  64854-3 0  9993,2 50851  53.2189 347.4257 0002271  40.4127 185.3315 15.08829950  3603,6917.911,95.438,541.347,538.205,0.0
50851.0,STARLINK-3314,PAYLOAD,2022-05-09 06:00:00,15.08860749,0.0002209,53.2189,345.9287,40.0991,197.2286,-0.0015695,-0.00025195,0.0,0 STARLINK-3314,1 50851U 22001BA  22129.25001157 -.00025195  00000-0 -15695-2 0  9993,2 50851  53.2189 345.9287 0002209  40.0991 197.2286 15.08860749 20132,6917.816999999999,95.436,541.21,538.154,0.0
50851.0,STARLINK-3314,PAYLOAD,2022-05-09 14:00:01,15.08860203,0.0002089,53.2193,344.4313,44.6189,204.3793,-0.00027877,-4.725e-05,0.0,0 STARLINK-3314,1 50851U 22001BA  22129.58335648 -.00004725  00000-0 -27877-3 0  9996,2 50851  53.2193 344.4313 0002089  44.6189 204.3793 15.08860203  3607,6917.819,95.436,541.129,538.239,0.0
50851.0,STARLINK-3314,PAYLOAD,2022-05-09 22:00:00,15.08830613,0.0002269,53.2193,342.9368,39.2817,221.277,0.0010396,0.00016292,0.0,0 STARLINK-3314,1 50851U 22001BA  22129.91667824  .00016292  00000-0  10396-2 0  9994,2 50851  53.2193 342.9368 0002269  39.2817 221.2770 15.08830613  3591,6917.909000000002,95.438,541.344,538.2040000000002,0.0
50851.0,STARLINK-3314,PAYLOAD,2022-05-10 00:00:00,15.08823459,0.0002258,53.2194,342.5630000000001,38.1569,315.3016,0.0022988,0.00036471,0.0,0 STARLINK-3314,1 50851U 22001BA  22130.00001157  .00036471  00000-0  22988-2 0  9998,2 50851  53.2194 342.5630 0002258  38.1569 315.3016 15.08823459 20249,6917.931,95.439,541.3580000000002,538.234,0.0
50851.0,STARLINK-3314,PAYLOAD,2022-05-10 14:00:01,15.0882211,0.0002003,53.2196,339.9426,41.9159,241.8208,0.001717,0.00027131,0.0,0 STARLINK-3314,1 50851U 22001BA  22130.58334491  .00027131  00000-0  17170-2 0  9991,2 50851  53.2196 339.9426 0002003  41.9159 241.8208 15.08822110 20338,6917.935,95.439,541.186,538.414,0.0
50851.0,STARLINK-3314,PAYLOAD,2022-05-10 18:00:00,15.08843222,0.0002111,53.2195,339.1955,39.8765,69.6446,-0.0014663,-0.00023551,0.0,0 STARLINK-3314,1 50851U 22001BA  22130.75001157 -.00023551  00000-0 -14663-2 0  9998,2 50851  53.2195 339.1955 0002111  39.8765  69.6446 15.08843222  3580,6917.871,95.437,541.196,538.275,0.0
50851.0,STARLINK-3314,PAYLOAD,2022-05-11 22:00:00,15.08817746,0.0002156,53.2193,333.9595,36.99800000000001,293.087,0.0014749,0.00023249,0.0,0 STARLINK-3314,1 50851U 22001BA  22131.91667824  .00023249  00000-0  14749-2 0  9993,2 50851  53.2193 333.9595 0002156  36.9980 293.0870 15.08817746 20536,6917.948,95.439,541.305,538.322,0.0
50851.0,STARLINK-3314,PAYLOAD,2022-05-12 14:00:01,15.08855483,0.0001904,53.219,330.9653,41.4621,311.793,0.00021988,3.214e-05,0.0,0 STARLINK-3314,1 50851U 22001BA  22132.58334491  .00003214  00000-0  21988-3 0  9992,2 50851  53.2190 330.9653 0001904  41.4621 311.7930 15.08855483  1307,6917.833000000001,95.437,541.015,538.381,0.0
50851.0,STARLINK-3314,PAYLOAD,2022-05-12 22:00:00,15.08834747,0.0002091,53.2187,329.4707,36.4846,328.3924,0.00039681,6.032e-05,0.0,0 STARLINK-3314,1 50851U 22001BA  22132.91667824  .00006032  00000-0  39681-3 0  9998,2 50851  53.2187 329.4707 0002091  36.4846 328.3924 15.08834747  1304,6917.896,95.438,541.2080000000002,538.315,0.0
50851.0,STARLINK-3314,PAYLOAD,2022-05-13 06:00:00,15.08847671,0.0001958,53.2182,327.973,37.4246,339.0414,-0.00075131,-0.00012228,0.0,0 STARLINK-3314,1 50851U 22001BA  22133.25001157 -.00012228  00000-0 -75131-3 0  9993,2 50851  53.2182 327.9730 0001958  37.4246 339.0414 15.08847671 20735,6917.857,95.437,541.076,538.367,0.0
50851.0,STARLINK-3314,PAYLOAD,2022-05-13 14:00:01,15.08864157,0.0001929,53.2183,326.4765,42.108,345.9461,-0.0024917,-0.00039752,0.0,0 STARLINK-3314,1 50851U 22001BA  22133.58334491 -.00039752  00000-0 -24917-2 0  9995,2 50851  53.2183 326.4765 0001929  42.1080 345.9461 15.08864157  1303,6917.807,95.436,541.006,538.337,0.0
50851.0,STARLINK-3314,PAYLOAD,2022-05-13 22:00:00,15.08812365,0.0002155,53.218,324.9817,38.9568,0.713,0.002371,0.0003762,0.0,0 STARLINK-3314,1 50851U 22001BA  22133.91667824  .00037620  00000-0  23710-2 0  9991,2 50851  53.2180 324.9817 0002155  38.9568   0.7130 15.08812365  1300,6917.965,95.439,541.321,538.339,0.0
50851.0,STARLINK-3314,PAYLOAD,2022-05-14 14:00:01,15.08803959,0.0002222,53.2173,321.9887,39.1874,23.622,0.0033599,0.00053539,0.0,0 STARLINK-3314,1 50851U 22001BA  22134.58334491  .00053539  00000-0  33599-2 0  9999,2 50851  53.2173 321.9887 0002222  39.1874  23.6220 15.08803959  1307,6917.991,95.44,541.393,538.318,0.0
50851.0,STARLINK-3314,PAYLOAD,2022-05-14 16:00:00,15.08838208,0.0002252,53.2175,321.6154,38.4558,117.2347,-0.00014069,-2.527e-05,0.0,0 STARLINK-3314,1 50851U 22001BA  22134.66667824 -.00002527  00000-0 -14069-3 0  9992,2 50851  53.2175 321.6154 0002252  38.4558 117.2347 15.08838208 20954,6917.886,95.438,541.309,538.193,0.0
50851.0,STARLINK-3314,PAYLOAD,2022-05-14 22:00:00,15.08810604,0.000213,53.2176,320.4924,36.2787,38.1834,0.0031802,0.00050649,0.0,0 STARLINK-3314,1 50851U 22001BA  22134.91667824  .00050649  00000-0  31802-2 0  9999,2 50851  53.2176 320.4924 0002130  36.2787  38.1834 15.08810604 20987,6917.97,95.439,541.309,538.362,0.0
50851.0,STARLINK-3314,PAYLOAD,2022-05-15 14:00:01,15.08840944,0.0001953,53.2176,317.4977,38.4454,59.2552,-0.00040515,-6.731e-05,0.0,0 STARLINK-3314,1 50851U 22001BA  22135.58335648 -.00006731  00000-0 -40515-3 0  9996,2 50851  53.2176 317.4977 0001953  38.4454  59.2552 15.08840944 21081,6917.878000000002,95.437,541.094,538.391,0.0
50851.0,STARLINK-3314,PAYLOAD,2022-05-15 22:00:00,15.08816345,0.0002117,53.2177,316.0029,32.1035,77.1391,0.0014671,0.00023123,0.0,0 STARLINK-3314,1 50851U 22001BA  22135.91667824  .00023123  00000-0  14671-2 0  9992,2 50851  53.2177 316.0029 0002117  32.1035  77.1391 15.08816345  1305,6917.953,95.439,541.2819999999998,538.3530000000002,0.0
50851.0,STARLINK-3314,PAYLOAD,2022-05-16 14:00:01,15.08861443,0.0002038,53.2181,313.0084,37.2866,95.1055,-0.0033305,-0.00052936,0.0,0 STARLINK-3314,1 50851U 22001BA  22136.58334491 -.00052936  00000-0 -33305-2 0  9998,2 50851  53.2181 313.0084 0002038  37.2866  95.1055 15.08861443  1304,6917.815,95.436,541.09,538.27,0.0
50851.0,STARLINK-3314,PAYLOAD,2022-05-16 22:00:00,15.088025,0.0002261,53.2182,311.5135,33.5425,110.4594,0.0037053,0.00059117,0.0,0 STARLINK-3314,1 50851U 22001BA  22136.91667824  .00059117  00000-0  37053-2 0  9994,2 50851  53.2182 311.5135 0002261  33.5425 110.4594 15.08802500 21280,6917.995,95.44,541.424,538.2959999999998,0.0
50851.0,STARLINK-3314,PAYLOAD,2022-05-17 12:00:00,15.08823577,0.0002032,53.2187,308.8928,36.5514,37.7165,0.0016215999999999,0.00025603,0.0,0 STARLINK-3314,1 50851U 22001BA  22137.50001157  .00025603  00000-0  16216-2 0  9992,2 50851  53.2187 308.8928 0002032  36.5514  37.7165 15.08823577 21374,6917.931,95.439,541.201,538.39,0.0
